NORAD_CAT_ID,OBJECT_NAME,OBJECT_TYPE,EPOCH,MEAN_MOTION,ECCENTRICITY,INCLINATION,RA_OF_ASC_NODE,ARG_OF_PERICENTER,MEAN_ANOMALY,BSTAR,MEAN_MOTION_DOT,MEAN_MOTION_DDOT,TLE_LINE0,TLE_LINE1,TLE_LINE2,SEMIMAJOR_AXIS,PERIOD,APOGEE,PERIGEE,DECAYED
51889.0,STARLINK-3547,PAYLOAD,2023-11-08 00:56:40,15.088524,0.0001555,53.2169,226.8214,66.8417,293.2739,8.6766e-06,-1.5e-06,0.0,0 STARLINK-3547,1 51889U 22022AP  23312.03936197 -.00000150  00000-0  86766-5 0  9993,2 51889  53.2169 226.8214 0001555  66.8417 293.2739 15.08852400 94520,6917.842,95.437,540.783,538.632,0.0
51889.0,STARLINK-3547,PAYLOAD,2023-11-08 04:07:27,15.08846465,0.000142,53.2172,226.2224,95.8731,264.2423,1.0897e-05,-1.15e-06,0.0,0 STARLINK-3547,1 51889U 22022AP  23312.17184409 -.00000115  00000-0  10897-4 0  9991,2 51889  53.2172 226.2224 0001420  95.8731 264.2423 15.08846465 94545,6917.861,95.437,540.708,538.743,0.0
51889.0,STARLINK-3547,PAYLOAD,2023-11-08 21:36:42,15.08841913,0.0001257,53.2167,222.9557,72.757,287.3559,0.00091472,0.000143,0.0,0 STARLINK-3547,1 51889U 22022AP  23312.90049286  .00014300  00000-0  91472-3 0  9992,2 51889  53.2167 222.9557 0001257  72.7570 287.3559 15.08841913 94655,6917.875,95.437,540.609,538.87,0.0
51889.0,STARLINK-3547,PAYLOAD,2023-11-09 03:58:14,15.08850674,0.0001408,53.2168,221.7614,89.2211,270.8942,0.00080951,0.00012623,0.0,0 STARLINK-3547,1 51889U 22022AP  23313.16544556  .00012623  00000-0  80951-3 0  9997,2 51889  53.2168 221.7614 0001408  89.2211 270.8942 15.08850674 94691,6917.848,95.437,540.687,538.739,0.0
51889.0,STARLINK-3547,PAYLOAD,2023-11-09 21:27:30,15.088271,0.0001242,53.2174,218.4978,60.6612,299.4504,0.00011987,1.62e-05,0.0,0 STARLINK-3547,1 51889U 22022AP  23313.89410251  .00001620  00000-0  11987-3 0  9999,2 51889  53.2174 218.4978 0001242  60.6612 299.4504 15.08827100 94800,6917.92,95.438,540.644,538.926,0.0
51889.0,STARLINK-3547,PAYLOAD,2023-11-10 00:38:15,15.08840866,0.0001238,53.2171,217.8961,104.1324,255.9806,0.00021177,3.084e-05,0.0,0 STARLINK-3547,1 51889U 22022AP  23314.02657050  .00003084  00000-0  21177-3 0  9993,2 51889  53.2171 217.8961 0001238 104.1324 255.9806 15.08840866 94829,6917.878,95.437,540.599,538.886,0.0
51889.0,STARLINK-3547,PAYLOAD,2023-11-10 10:10:34,15.08844363,0.0001307,53.2171,216.112,100.2453,259.8686,5.3871e-05,5.7e-06,0.0,0 STARLINK-3547,1 51889U 22022AP  23314.42401101  .00000570  00000-0  53871-4 0  9995,2 51889  53.2171 216.1120 0001307 100.2453 259.8686 15.08844363 94886,6917.867,95.437,540.636,538.828,0.0
51889.0,STARLINK-3547,PAYLOAD,2023-11-11 10:01:21,15.08849238,0.0001428,53.2176,211.6541,88.1302,271.9854,-0.00013805,-2.485e-05,0.0,0 STARLINK-3547,1 51889U 22022AP  23315.41760878 -.00002485  00000-0 -13805-3 0  9995,2 51889  53.2176 211.6541 0001428  88.1302 271.9854 15.08849238 95035,6917.852,95.437,540.705,538.729,0.0
51889.0,STARLINK-3547,PAYLOAD,2023-11-11 16:22:54,15.0883367,0.0001323,53.2178,210.4649,97.8365,262.2777,0.00010472,1.379e-05,0.0,0 STARLINK-3547,1 51889U 22022AP  23315.68257543  .00001379  00000-0  10472-3 0  9990,2 51889  53.2178 210.4649 0001323  97.8365 262.2777 15.08833670 95077,6917.9,95.438,540.68,538.849,0.0
51889.0,STARLINK-3547,PAYLOAD,2023-11-11 21:09:04,15.08835113,0.0001392,53.2177,209.5723,103.0369,257.0778,-1.3795e-05,-5.07e-06,0.0,0 STARLINK-3547,1 51889U 22022AP  23315.88129848 -.00000507  00000-0 -13795-4 0  9994,2 51889  53.2177 209.5723 0001392 103.0369 257.0778 15.08835113 95109,6917.895,95.438,540.723,538.797,0.0
51889.0,STARLINK-3547,PAYLOAD,2023-11-12 09:52:09,15.08836414,0.0001346,53.2173,207.1931,100.6278,259.4866,4.8662e-05,4.87e-06,0.0,0 STARLINK-3547,1 51889U 22022AP  23316.41121769  .00000487  00000-0  48662-4 0  9994,2 51889  53.2173 207.1931 0001346 100.6278 259.4866 15.08836414 95188,6917.891,95.438,540.687,538.825,0.0
51889.0,STARLINK-3547,PAYLOAD,2023-11-12 22:35:14,15.08839251,0.0001366,53.2167,204.8142,102.1376,257.9769,6.7692e-05,7.9e-06,0.0,0 STARLINK-3547,1 51889U 22022AP  23316.94113716  .00000790  00000-0  67692-4 0  9996,2 51889  53.2167 204.8142 0001366 102.1376 257.9769 15.08839251 95263,6917.883,95.438,540.693,538.803,0.0
51889.0,STARLINK-3547,PAYLOAD,2023-11-13 01:46:00,15.08844936,0.000139,53.2169,204.2194,96.5161,263.599,0.00012585,1.716e-05,0.0,0 STARLINK-3547,1 51889U 22022AP  23317.07361238  .00001716  00000-0  12585-3 0  9994,2 51889  53.2169 204.2194 0001390  96.5161 263.5990 15.08844936 95288,6917.865,95.437,540.692,538.769,0.0
51889.0,STARLINK-3547,PAYLOAD,2023-11-13 09:42:55,15.08844619,0.0001512,53.217,202.7318,86.9366,273.1799,0.00011479,1.54e-05,0.0,0 STARLINK-3547,1 51889U 22022AP  23317.40481318  .00001540  00000-0  11479-3 0  9999,2 51889  53.2170 202.7318 0001512  86.9366 273.1799 15.08844619 95335,6917.866,95.437,540.777,538.685,0.0
51889.0,STARLINK-3547,PAYLOAD,2023-11-13 22:26:00,15.08843485,0.0001518,53.2167,200.3521,85.4314,274.6852,0.00015463,2.174e-05,0.0,0 STARLINK-3547,1 51889U 22022AP  23317.93473237  .00002174  00000-0  15463-3 0  9999,2 51889  53.2167 200.3521 0001518  85.4314 274.6852 15.08843485 95419,6917.87,95.437,540.785,538.685,0.0
51889.0,STARLINK-3547,PAYLOAD,2023-11-14 09:33:42,15.08846188,0.0001384,53.2169,198.2682,91.9119,268.2032,-3.6047e-05,-8.62e-06,0.0,0 STARLINK-3547,1 51889U 22022AP  23318.39841294 -.00000862  00000-0 -36047-4 0  9998,2 51889  53.2169 198.2682 0001384  91.9119 268.2032 15.08846188 95489,6917.861,95.437,540.684,538.769,0.0
51889.0,STARLINK-3547,PAYLOAD,2023-11-15 22:07:34,15.08844368,0.0001662,53.2182,191.4322,89.826,270.2922,3.8343e-05,3.22e-06,0.0,0 STARLINK-3547,1 51889U 22022AP  23319.92193228  .00000322  00000-0  38343-4 0  9995,2 51889  53.2182 191.4322 0001662  89.8260 270.2922 15.08844368 95717,6917.867,95.437,540.882,538.582,0.0
51889.0,STARLINK-3547,PAYLOAD,2023-11-16 01:18:21,15.0884612,0.0001631,53.2176,190.8376,89.1686,270.9493,2.0489e-05,3.8e-07,0.0,0 STARLINK-3547,1 51889U 22022AP  23320.05441140  .00000038  00000-0  20489-4 0  9996,2 51889  53.2176 190.8376 0001631  89.1686 270.9493 15.08846120 95733,6917.862,95.437,540.855,538.598,0.0
51889.0,STARLINK-3547,PAYLOAD,2023-11-16 15:36:49,15.08840508,0.0001692,53.2166,188.1624,91.4135,268.7051,2.8637e-05,1.68e-06,0.0,0 STARLINK-3547,1 51889U 22022AP  23320.65057459  .00000168  00000-0  28637-4 0  9995,2 51889  53.2166 188.1624 0001692  91.4135 268.7051 15.08840508 95829,6917.879,95.438,540.914,538.573,0.0
51889.0,STARLINK-3547,PAYLOAD,2023-11-17 01:09:08,15.08841573,0.0001699,53.2164,186.3778,92.1006,268.0181,3.8125e-05,3.19e-06,0.0,0 STARLINK-3547,1 51889U 22022AP  23321.04801345  .00000319  00000-0  38125-4 0  9991,2 51889  53.2164 186.3778 0001699  92.1006 268.0181 15.08841573 95885,6917.876,95.437,540.916,538.565,0.0
51889.0,STARLINK-3547,PAYLOAD,2023-11-17 21:49:09,15.08833412,0.0001658,53.214,182.5096,94.1965,265.9216,1.8982e-05,1.4e-07,0.0,0 STARLINK-3547,1 51889U 22022AP  23321.90914042  .00000014  00000-0  18982-4 0  9996,2 51889  53.2140 182.5096 0001658  94.1965 265.9216 15.08833412 96015,6917.901,95.438,540.913,538.619,0.0
51889.0,STARLINK-3547,PAYLOAD,2023-11-18 07:21:28,15.08833869,0.0001659,53.2141,180.7254,93.9101,266.208,2.0539e-05,3.9e-07,0.0,0 STARLINK-3547,1 51889U 22022AP  23322.30658185  .00000039  00000-0  20539-4 0  9992,2 51889  53.2141 180.7254 0001659  93.9101 266.2080 15.08833869 96077,6917.899,95.438,540.912,538.616,0.0
51889.0,STARLINK-3547,PAYLOAD,2023-11-18 21:39:56,15.08839008,0.0001497,53.2111,178.0482,93.6678,266.4486,8.3707e-05,1.044e-05,0.0,0 STARLINK-3547,1 51889U 22022AP  23322.90273636  .00001044  00000-0  83707-4 0  9995,2 51889  53.2111 178.0482 0001497  93.6678 266.4486 15.08839008 96166,6917.883,95.438,540.784,538.713,0.0
51889.0,STARLINK-3547,PAYLOAD,2023-11-19 15:09:11,15.08834642,0.0001428,53.2175,174.7797,92.9951,267.1204,5.9472e-05,6.59e-06,0.0,0 STARLINK-3547,1 51889U 22022AP  23323.63138247  .00000659  00000-0  59472-4 0  9997,2 51889  53.2175 174.7797 0001428  92.9951 267.1204 15.08834642 96275,6917.897,95.438,540.75,538.774,0.0
51889.0,STARLINK-3547,PAYLOAD,2023-11-19 19:55:20,15.0883592,0.0001477,53.216,173.887,93.3014,266.8147,6.9539e-05,8.19e-06,0.0,0 STARLINK-3547,1 51889U 22022AP  23323.83010180  .00000819  00000-0  69539-4 0  9997,2 51889  53.2160 173.8870 0001477  93.3014 266.8147 15.08835920 96306,6917.893,95.438,540.78,538.736,0.0
51889.0,STARLINK-3547,PAYLOAD,2023-11-19 21:30:43,15.08836007,0.000147,53.2163,173.5898,92.8089,267.3071,6.6688e-05,7.73e-06,0.0,0 STARLINK-3547,1 51889U 22022AP  23323.89634152  .00000773  00000-0  66688-4 0  9995,2 51889  53.2163 173.5898 0001470  92.8089 267.3071 15.08836007 96315,6917.893,95.438,540.775,538.741,0.0
51889.0,STARLINK-3547,PAYLOAD,2023-11-20 07:03:02,15.08837591,0.0001483,53.2164,171.8055,92.0341,268.0821,7.317e-05,8.77e-06,0.0,0 STARLINK-3547,1 51889U 22022AP  23324.29378158  .00000877  00000-0  73170-4 0  9990,2 51889  53.2164 171.8055 0001483  92.0341 268.0821 15.08837591 96375,6917.888,95.438,540.779,538.727,0.0
51889.0,STARLINK-3547,PAYLOAD,2023-11-20 21:21:30,15.08843908,0.0001521,53.2164,169.1294,92.1245,267.9921,5.4722e-05,5.83e-06,0.0,0 STARLINK-3547,1 51889U 22022AP  23324.88993773  .00000583  00000-0  54722-4 0  9997,2 51889  53.2164 169.1294 0001521  92.1245 267.9921 15.08843908 96465,6917.868,95.437,540.786,538.681,0.0
51889.0,STARLINK-3547,PAYLOAD,2023-11-20 22:56:53,15.08844491,0.0001514,53.216,168.8315,90.5617,269.5549,5.7329e-05,6.25e-06,0.0,0 STARLINK-3547,1 51889U 22022AP  23324.95617712  .00000625  00000-0  57329-4 0  9994,2 51889  53.2160 168.8315 0001514  90.5617 269.5549 15.08844491 96471,6917.867,95.437,540.779,538.684,0.0
51889.0,STARLINK-3547,PAYLOAD,2023-11-21 06:53:49,15.08842199,0.0001508,53.2156,167.3438,87.3284,272.7881,4.8164e-05,4.79e-06,0.0,0 STARLINK-3547,1 51889U 22022AP  23325.28737883  .00000479  00000-0  48164-4 0  9997,2 51889  53.2156 167.3438 0001508  87.3284 272.7881 15.08842199 96527,6917.874,95.437,540.782,538.695,0.0
